              TDR Cartesian                         TDR Cartesian  
    -----------------------------------       --------------------------------
     X    =      -21228078.07                 X    =        -6470318.20
     Y    =        1666453.64  feet           Y    =          507935.07  meter
     Z    =       -6492692.16                 Z    =        -1978972.57
     XDOT =       4400.053051                 XDOT =        1341.136170
     YDOT =     -15151.004584  feet/sec       YDOT =       -4618.026197  meter/sec
     ZDOT =     -18315.418737                 ZDOT =       -5582.539631
  
  
    The mean element set is posted at the UTC for which position is
    just north of the next ascending node relative to the above
    vector time
 
 
    TWO LINE MEAN ELEMENT SET
  
    ISS
    1 25544U 98067A   16066.21115818  .00016717  00000-0  10270-3 0  9047
    2 25544  51.6417 211.5685 0001837 246.4880 113.6080 15.53907449 28966
  
  
    Satellite: ISS
    Catalog Number: 25544
    Epoch time:      16066.21115818   =   yrday.fracday
    Element set:     904
    Inclination:       51.6417  deg
    RA of node:       211.5685  deg
    Eccentricity:     .0001837     
    Arg of perigee:   246.4880  deg
    Mean anomaly:     113.6080  deg
    Mean motion:   15.53907449  rev/day
    Decay rate:    1.67170E-04  rev/day^2
    Epoch rev:            2896
    Checksum:              317
 
 
    Coasting Arc #6 (Orbit 2911)
    ---------------------------------------
 
    Vector Time (GMT): 2016/067/04:23:20.227
    Vector Time (MET): N/A
    Weight (LBS)     : 890089.8
 
              M50 Cartesian                         M50 Keplerian  
    -----------------------------------       --------------------------------
     X    =       -3508657.50                 A    =         6785029.98  meter
     Y    =       -4694589.20  meter          E    =           .0010862
     Z    =        3409605.62                 I    =           51.48099
     XDOT =       6030.902563                 Wp   =           92.17202
     YDOT =      -1161.336065  meter/sec      RA   =          205.64106  deg
     ZDOT =       4594.016136                 TA   =          307.82188
                                              MA   =          307.92015
                                              Ha   =            220.767  n.mi
                                              Hp   =            215.576
 
              M50 Cartesian                         J2K Cartesian  
    -----------------------------------       --------------------------------
     X    =      -11511343.52                 X    =        -3472462.77
     Y    =      -15402195.53  feet           Y    =        -4733622.53  meter
     Z    =       11186370.15                 Z    =         3392650.25
     XDOT =      19786.425731                 XDOT =        6021.125332
     YDOT =      -3810.157694  feet/sec       YDOT =       -1093.948594  meter/sec
     ZDOT =      15072.231418                 ZDOT =        4623.288618
 
              TDR Cartesian                         TDR Cartesian  
    -----------------------------------       --------------------------------
     X    =       19248681.31                 X    =         5866998.06
     Y    =         922401.25  feet           Y    =          281147.90  meter
     Z    =       11113549.28                 Z    =         3387409.82
     XDOT =      -9575.911493                 XDOT =       -2918.737823
     YDOT =      16179.860106  feet/sec       YDOT =        4931.621360  meter/sec
     ZDOT =      15199.406681                 ZDOT =        4632.779156
  
  
    The mean element set is posted at the UTC for which position is
    just north of the next ascending node relative to the above
    vector time
 
 
    TWO LINE MEAN ELEMENT SET
  
    ISS
    1 25544U 98067A   16067.24011739  .00016717  00000-0  10270-3 0  9059
    2 25544  51.6419 206.4397 0001662 255.5983 104.4985 15.53934145 29126
  
  
    Satellite: ISS
    Catalog Number: 25544
    Epoch time:      16067.24011739   =   yrday.fracday
    Element set:     905
    Inclination:       51.6419  deg
    RA of node:       206.4397  deg
    Eccentricity:     .0001662     
    Arg of perigee:   255.5983  deg
    Mean anomaly:     104.4985  deg
    Mean motion:   15.53934145  rev/day
    Decay rate:    1.67170E-04  rev/day^2
    Epoch rev:            2912
    Checksum:              319
 
 
    Coasting Arc #7 (Orbit 2926)
    ---------------------------------------
 
    Vector Time (GMT): 2016/068/04:23:20.227
    Vector Time (MET): N/A
    Weight (LBS)     : 890089.8
 
              M50 Cartesian                         M50 Keplerian  
    -----------------------------------       --------------------------------
     X    =        2095396.32                 A    =         6781238.50  meter
     Y    =        4620760.16  meter          E    =           .0007765
     Z    =       -4507070.13                 I    =           51.49858
     XDOT =      -6972.991528                 Wp   =           66.87901
     YDOT =         69.337491  meter/sec      RA   =          200.64456  deg
     ZDOT =      -3172.123069                 TA   =          171.18354
                                              MA   =          171.16989
                                              Ha   =            220.590  n.mi
                                              Hp   =            215.611
 
              M50 Cartesian                         J2K Cartesian  
    -----------------------------------       --------------------------------
     X    =        6874659.85                 X    =         2065463.16
     Y    =       15159974.27  feet           Y    =         4644024.25  meter
     Z    =      -14786975.49                 Z    =        -4496964.76
     XDOT =     -22877.268794                 XDOT =       -6957.840072
     YDOT =        227.485208  feet/sec       YDOT =          -8.554879  meter/sec
     ZDOT =     -10407.227916                 ZDOT =       -3205.958772
 
              TDR Cartesian                         TDR Cartesian  
    -----------------------------------       --------------------------------
     X    =      -16187637.24                 X    =        -4933991.83
     Y    =       -4039767.35  feet           Y    =        -1231321.09  meter
     Z    =      -14743849.31                 Z    =        -4493925.27
     XDOT =      13791.646281                 XDOT =        4203.693786
     YDOT =     -16761.760000  feet/sec       YDOT =       -5108.984448  meter/sec
     ZDOT =     -10554.042275                 ZDOT =       -3216.872085
  
  
    The mean element set is posted at the UTC for which position is
    just north of the next ascending node relative to the above
    vector time
 
 
    TWO LINE MEAN ELEMENT SET
  
    ISS
    1 25544U 98067A   16068.20475628  .00016717  00000-0  10270-3 0  9068
    2 25544  51.6425 201.6318 0001822 262.9163  97.1782 15.53970696 29273
  
  
    Satellite: ISS
    Catalog Number: 25544
    Epoch time:      16068.20475628   =   yrday.fracday
    Element set:     906
    Inclination:       51.6425  deg
    RA of node:       201.6318  deg
    Eccentricity:     .0001822     
    Arg of perigee:   262.9163  deg
    Mean anomaly:      97.1782  deg
    Mean motion:   15.53970696  rev/day
    Decay rate:    1.67170E-04  rev/day^2
    Epoch rev:            2927
    Checksum:              325
 
 
    Coasting Arc #8 (Orbit 2942)
    ---------------------------------------
 
    Vector Time (GMT): 2016/069/04:23:20.227
    Vector Time (MET): N/A
    Weight (LBS)     : 890089.8
 
              M50 Cartesian                         M50 Keplerian  
    -----------------------------------       --------------------------------
     X    =        -474636.20                 A    =         6778536.76  meter
     Y    =       -4382431.46  meter          E    =           .0003510
     Z    =        5148328.54                 I    =           51.52038
     XDOT =       7477.500385                 Wp   =          143.63149
     YDOT =        896.994139  meter/sec      RA   =          195.64126  deg
     ZDOT =       1449.643106                 TA   =          292.37754
                                              MA   =          292.41472
                                              Ha   =            220.609  n.mi
                                              Hp   =            215.543
 
              M50 Cartesian                         J2K Cartesian  
    -----------------------------------       --------------------------------
     X    =       -1557205.38                 X    =         -450603.54
     Y    =      -14378055.98  feet           Y    =        -4387603.97  meter
     Z    =       16890841.65                 Z    =         5146081.97
     XDOT =      24532.481577                 XDOT =        7459.872576
     YDOT =       2942.894156  feet/sec       YDOT =         980.514185  meter/sec
     ZDOT =       4756.046937                 ZDOT =        1485.923518
 
              TDR Cartesian                         TDR Cartesian  
    -----------------------------------       --------------------------------
     X    =       12391276.09                 X    =         3776860.95
     Y    =        7477703.04  feet           Y    =         2279203.89  meter
     Z    =       16881769.70                 Z    =         5145563.41
     XDOT =     -16772.512978                 XDOT =       -5112.261956
     YDOT =      16676.982068  feet/sec       YDOT =        5083.144134  meter/sec
     ZDOT =       4913.332399                 ZDOT =        1497.583715
  
  
    The mean element set is posted at the UTC for which position is
    just north of the next ascending node relative to the above
    vector time
 
 
    TWO LINE MEAN ELEMENT SET
  
    ISS
    1 25544U 98067A   16069.23369638  .00016717  00000-0  10270-3 0  9076
    2 25544  51.6430 196.5033 0001742 266.6497  93.4456 15.53975183 29438
  
